{
"type": "FeatureCollection",
"name": "hubs",
"crs": { "type": "name", "properties": { "name": "urn:ogc:def:crs:OGC:1.3:CRS84" } },
"features": [
{ "type": "Feature", "properties": { "poi_id": 6, "poi_name": "Anakiwa", "poi_type": "Local - Picton" }, "geometry": { "type": "Point", "coordinates": [ 173.920066, -41.264134 ] } },
{ "type": "Feature", "properties": { "poi_id": 7, "poi_name": "Grove Point/Arm Jetty", "poi_type": "Local - Picton" }, "geometry": { "type": "Point", "coordinates": [ 173.919448, -41.274852 ] } },
{ "type": "Feature", "properties": { "poi_id": 8, "poi_name": "Momorangi Bay", "poi_type": "Local - Picton" }, "geometry": { "type": "Point", "coordinates": [ 173.940258, -41.270024 ] } },
{ "type": "Feature", "properties": { "poi_id": 9, "poi_name": "Ngakuta Bay", "poi_type": "Local - Picton" }, "geometry": { "type": "Point", "coordinates": [ 173.961553, -41.273012 ] } },
{ "type": "Feature", "properties": { "poi_id": 10, "poi_name": "Waterfall Bay", "poi_type": "Local - Picton" }, "geometry": { "type": "Point", "coordinates": [ 173.965355, -41.225057 ] } },
{ "type": "Feature", "properties": { "poi_id": 11, "poi_name": "Punga Cove", "poi_type": "Local - Picton" }, "geometry": { "type": "Point", "coordinates": [ 174.151479, -41.12902 ] } },
{ "type": "Feature", "properties": { "poi_id": 12, "poi_name": "Oyster Bay", "poi_type": "Local - Picton" }, "geometry": { "type": "Point", "coordinates": [ 174.114751, -41.301332 ] } },
{ "type": "Feature", "properties": { "poi_id": 13, "poi_name": "Hakana Bay", "poi_type": "Local - Picton" }, "geometry": { "type": "Point", "coordinates": [ 174.186625, -41.296874 ] } },
{ "type": "Feature", "properties": { "poi_id": 14, "poi_name": "Elaine Bay", "poi_type": "Arterial Hubs" }, "geometry": { "type": "Point", "coordinates": [ 173.773516, -41.055118 ] } },
{ "type": "Feature", "properties": { "poi_id": 15, "poi_name": "Portage Bay", "poi_type": "Arterial Hubs" }, "geometry": { "type": "Point", "coordinates": [ 174.035165, -41.19808 ] } },
{ "type": "Feature", "properties": { "poi_id": 16, "poi_name": "Torea Bay", "poi_type": "Arterial Hubs" }, "geometry": { "type": "Point", "coordinates": [ 174.031813, -41.2106 ] } },
{ "type": "Feature", "properties": { "poi_id": 17, "poi_name": "Kaiuma Bay", "poi_type": "Local - Havelock Inner" }, "geometry": { "type": "Point", "coordinates": [ 173.810244, -41.24526 ] } },
{ "type": "Feature", "properties": { "poi_id": 18, "poi_name": "Moetapu Bay Jetty", "poi_type": "Local - Havelock Inner" }, "geometry": { "type": "Point", "coordinates": [ 173.851689, -41.261291 ] } },
{ "type": "Feature", "properties": { "poi_id": 19, "poi_name": "Double Bay Boat Ramp", "poi_type": "Local - Havelock Inner" }, "geometry": { "type": "Point", "coordinates": [ 173.865189, -41.256889 ] } },
{ "type": "Feature", "properties": { "poi_id": 20, "poi_name": "Ohingaroa Bay", "poi_type": "Local - Havelock Inner" }, "geometry": { "type": "Point", "coordinates": [ 173.885187, -41.246423 ] } },
{ "type": "Feature", "properties": { "poi_id": 21, "poi_name": "Willow Bay", "poi_type": "Local - Havelock Inner" }, "geometry": { "type": "Point", "coordinates": [ 173.895931, -41.238046 ] } },
{ "type": "Feature", "properties": { "poi_id": 22, "poi_name": "Broughton Bay Road", "poi_type": "Local - Havelock Inner" }, "geometry": { "type": "Point", "coordinates": [ 173.954444, -41.21552 ] } },
{ "type": "Feature", "properties": { "poi_id": 23, "poi_name": "Te Mahia", "poi_type": "Local - Havelock Inner" }, "geometry": { "type": "Point", "coordinates": [ 173.971529, -41.216229 ] } },
{ "type": "Feature", "properties": { "poi_id": 24, "poi_name": "Tara Bay", "poi_type": "Local - Havelock Inner" }, "geometry": { "type": "Point", "coordinates": [ 173.989533, -41.209548 ] } },
{ "type": "Feature", "properties": { "poi_id": 25, "poi_name": "Cowshed Bay", "poi_type": "Local - Havelock Inner" }, "geometry": { "type": "Point", "coordinates": [ 174.031815, -41.202023 ] } },
{ "type": "Feature", "properties": { "poi_id": 26, "poi_name": "Nikau Cove Doc Camp", "poi_type": "Local - Havelock Inner" }, "geometry": { "type": "Point", "coordinates": [ 174.049704, -41.195176 ] } },
{ "type": "Feature", "properties": { "poi_id": 27, "poi_name": "Sandy Bay", "poi_type": "Local - Havelock Inner" }, "geometry": { "type": "Point", "coordinates": [ 174.098336, -41.185692 ] } },
{ "type": "Feature", "properties": { "poi_id": 28, "poi_name": "Fish Bay Ramp", "poi_type": "Local - Havelock Inner" }, "geometry": { "type": "Point", "coordinates": [ 174.0601, -41.175696 ] } },
{ "type": "Feature", "properties": { "poi_id": 29, "poi_name": "Waitaria Bay", "poi_type": "Local - Havelock Inner" }, "geometry": { "type": "Point", "coordinates": [ 174.041969, -41.160145 ] } },
{ "type": "Feature", "properties": { "poi_id": 30, "poi_name": "St. Omer Barge Ramp", "poi_type": "Local - Havelock Inner" }, "geometry": { "type": "Point", "coordinates": [ 173.971429, -41.174621 ] } },
{ "type": "Feature", "properties": { "poi_id": 31, "poi_name": "Double Bay", "poi_type": "Local - Havelock Inner" }, "geometry": { "type": "Point", "coordinates": [ 173.944225, -41.184953 ] } },
{ "type": "Feature", "properties": { "poi_id": 32, "poi_name": "Duncan Bay", "poi_type": "Local - Havelock Outer" }, "geometry": { "type": "Point", "coordinates": [ 173.764882, -41.115335 ] } },
{ "type": "Feature", "properties": { "poi_id": 33, "poi_name": "Penzance Bay", "poi_type": "Local - Havelock Outer" }, "geometry": { "type": "Point", "coordinates": [ 173.765657, -41.087484 ] } },
{ "type": "Feature", "properties": { "poi_id": 34, "poi_name": "Cissy Bay", "poi_type": "Local - Havelock Outer" }, "geometry": { "type": "Point", "coordinates": [ 173.828448, -40.988605 ] } },
{ "type": "Feature", "properties": { "poi_id": 35, "poi_name": "Elmslie Bay (French Pass)", "poi_type": "Local - Havelock Outer" }, "geometry": { "type": "Point", "coordinates": [ 173.84356, -40.926942 ] } },
{ "type": "Feature", "properties": { "poi_id": 36, "poi_name": "Kapowai Bay (D'urville Island)", "poi_type": "Local - Havelock Outer" }, "geometry": { "type": "Point", "coordinates": [ 173.84021, -40.90308 ] } },
{ "type": "Feature", "properties": { "poi_id": 37, "poi_name": "Hamilton Bay (Rocky Creek) Ramp", "poi_type": "Local - Havelock Outer" }, "geometry": { "type": "Point", "coordinates": [ 173.87068, -40.98115 ] } },
{ "type": "Feature", "properties": { "poi_id": 38, "poi_name": "Bulwer Bay", "poi_type": "Local - Havelock Outer" }, "geometry": { "type": "Point", "coordinates": [ 173.950406, -40.941946 ] } },
{ "type": "Feature", "properties": { "poi_id": 39, "poi_name": "Elaine Bay Boat Ramp", "poi_type": "Local - Havelock Outer" }, "geometry": { "type": "Point", "coordinates": [ 173.769935, -41.056228 ] } },
{ "type": "Feature", "properties": { "poi_id": 40, "poi_name": "Titirangi Bay", "poi_type": "Local - Havelock Outer" }, "geometry": { "type": "Point", "coordinates": [ 174.136574, -41.021537 ] } },
{ "type": "Feature", "properties": { "poi_id": 41, "poi_name": "Okiwi Bay", "poi_type": "Local - Nelson" }, "geometry": { "type": "Point", "coordinates": [ 173.658717, -41.111499 ] } }
]
}
